{"type": "FeatureCollection", "features": [ {"type": "Feature", "properties": {"norad_id": 34990, "name": "COSMOS 2251 DEB", "group": "cosmos-2251-debris", "lat": -43.02867150240239, "lon": -147.77127525938258, "alt_km": 746.3334040495456, "timestamp": "2025-12-25T11:37:44.835160+00:00", "meta": {"OBJECT_NAME": "COSMOS 2251 DEB", "OBJECT_ID": "1993-036AFN", "EPOCH": "2025-12-15T10:28:28.781472", "MEAN_MOTION": 14.42382837, "ECCENTRICITY": 0.00165597, "INCLINATION": 74.0457, "RA_OF_ASC_NODE": 246.3361, "ARG_OF_PERICENTER": 308.9911, "MEAN_ANOMALY": 50.977, "EPHEMERIS_TYPE": 0, "CLASSIFICATION_TYPE": "U", "NORAD_CAT_ID": 34990, "ELEMENT_SET_NO": 999, "REV_AT_EPOCH": 87385, "BSTAR": 0.00031884459, "MEAN_MOTION_DOT": 1.029e-05, "MEAN_MOTION_DDOT": 0}, "tle": {"line1": "1 34990U 93036AFN 25349.43644423  .00001029  00000+0  31884-3 0  9997", "line2": "2 34990  74.0457 246.3361 0016559 308.9911  50.9770 14.42382837873857"}}, "geometry": {"type": "Point", "coordinates": [-147.77127525938258, -43.02867150240239]}}, {"type": "Feature", "properties": {"norad_id": 34997, "name": "COSMOS 2251 DEB", "group": "cosmos-2251-debris", "lat": -73.85876611541526, "lon": -165.04702610879056, "alt_km": 678.4700198147166, "timestamp": "2025-12-25T11:37:44.835170+00:00", "meta": {"OBJECT_NAME": "COSMOS 2251 DEB", "OBJECT_ID": "1993-036AFV", "EPOCH": "2025-12-25T02:04:43.961088", "MEAN_MOTION": 14.45692519, "ECCENTRICITY": 0.0097082, "INCLINATION": 73.8805, "RA_OF_ASC_NODE": 287.9486, "ARG_OF_PERICENTER": 260.9116, "MEAN_ANOMALY": 98.1047, "EPHEMERIS_TYPE": 0, "CLASSIFICATION_TYPE": "U", "NORAD_CAT_ID": 34997, "ELEMENT_SET_NO": 999, "REV_AT_EPOCH": 70925, "BSTAR": 0.0014829, "MEAN_MOTION_DOT": 5.538e-05, "MEAN_MOTION_DDOT": 0}, "tle": {"line1": "1 34997U 93036AFV 25359.08661992  .00005538  00000+0  14829-2 0  9994", "line2": "2 34997  73.8805 287.9486 0097082 260.9116  98.1047 14.45692519709258"}}, "geometry": {"type": "Point", "coordinates": [-165.04702610879056, -73.85876611541526]}}, {"type": "Feature", "properties": {"norad_id": 34998, "name": "COSMOS 2251 DEB", "group": "cosmos-2251-debris", "lat": -41.22258057006235, "lon": 121.49249092962876, "alt_km": 721.7401041396706, "timestamp": "2025-12-25T11:37:44.835180+00:00", "meta": {"OBJECT_NAME": "COSMOS 2251 DEB", "OBJECT_ID": "1993-036AFW", "EPOCH": "2025-12-24T19:57:21.845376", "MEAN_MOTION": 14.49331635, "ECCENTRICITY": 0.0021609, "INCLINATION": 74.0106, "RA_OF_ASC_NODE": 137.2683, "ARG_OF_PERICENTER": 281.3103, "MEAN_ANOMALY": 229.4167, "EPHEMERIS_TYPE": 0, "CLASSIFICATION_TYPE": "U", "NORAD_CAT_ID": 34998, "ELEMENT_SET_NO": 999, "REV_AT_EPOCH": 87595, "BSTAR": 0.00064204804, "MEAN_MOTION_DOT": 2.432e-05, "MEAN_MOTION_DDOT": 0}, "tle": {"line1": "1 34998U 93036AFW 25358.83150284  .00002432  00000+0  64205-3 0  9998", "line2": "2 34998  74.0106 137.2683 0021609 281.3103 229.4167 14.49331635875953"}}, "geometry": {"type": "Point", "coordinates": [121.49249092962876, -41.22258057006235]}}, {"type": "Feature", "properties": {"norad_id": 35012, "name": "COSMOS 2251 DEB", "group": "cosmos-2251-debris", "lat": 58.63872864119177, "lon": -120.09218558637828, "alt_km": 751.7033364548361, "timestamp": "2025-12-25T11:37:44.835191+00:00", "meta": {"OBJECT_NAME": "COSMOS 2251 DEB", "OBJECT_ID": "1993-036AFZ", "EPOCH": "2025-12-24T00:12:06.211008", "MEAN_MOTION": 14.45562607, "ECCENTRICITY": 0.0081433, "INCLINATION": 74.0209, "RA_OF_ASC_NODE": 90.705, "ARG_OF_PERICENTER": 228.4713, "MEAN_ANOMALY": 130.9441, "EPHEMERIS_TYPE": 0, "CLASSIFICATION_TYPE": "U", "NORAD_CAT_ID": 35012, "ELEMENT_SET_NO": 999, "REV_AT_EPOCH": 87724, "BSTAR": 0.00017130932, "MEAN_MOTION_DOT": 6.01e-06, "MEAN_MOTION_DDOT": 0}, "tle": {"line1": "1 35012U 93036AFZ 25358.00840522  .00000601  00000+0  17131-3 0  9998", "line2": "2 35012  74.0209  90.7050 0081433 228.4713 130.9441 14.45562607877242"}}, "geometry": {"type": "Point", "coordinates": [-120.09218558637828, 58.63872864119177]}}, {"type": "Feature", "properties": {"norad_id": 35014, "name": "COSMOS 2251 DEB", "group": "cosmos-2251-debris", "lat": 30.177112756812654, "lon": -171.04172168195507, "alt_km": 638.8181440901581, "timestamp": "2025-12-25T11:37:44.835201+00:00", "meta": {"OBJECT_NAME": "COSMOS 2251 DEB", "OBJECT_ID": "1993-036AGB", "EPOCH": "2025-12-22T09:43:37.618464", "MEAN_MOTION": 14.75357031, "ECCENTRICITY": 0.00066485, "INCLINATION": 73.9987, "RA_OF_ASC_NODE": 24.596, "ARG_OF_PERICENTER": 203.6446, "MEAN_ANOMALY": 156.4423, "EPHEMERIS_TYPE": 0, "CLASSIFICATION_TYPE": "U", "NORAD_CAT_ID": 35014, "ELEMENT_SET_NO": 999, "REV_AT_EPOCH": 71479, "BSTAR": 0.0015862083, "MEAN_MOTION_DOT": 0.00010749, "MEAN_MOTION_DDOT": 0}, "tle": {"line1": "1 35014U 93036AGB 25356.40529651  .00010749  00000+0  15862-2 0  9991", "line2": "2 35014  73.9987  24.5960 0006648 203.6446 156.4423 14.75357031714792"}}, "geometry": {"type": "Point", "coordinates": [-171.04172168195507, 30.177112756812654]}}, {"type": "Feature", "properties": {"norad_id": 35015, "name": "COSMOS 2251 DEB", "group": "cosmos-2251-debris", "lat": -42.52316662132551, "lon": -164.52838026792432, "alt_km": 768.8268357806155, "timestamp": "2025-12-25T11:37:44.835211+00:00", "meta": {"OBJECT_NAME": "COSMOS 2251 DEB", "OBJECT_ID": "1993-036AGC", "EPOCH": "2025-12-24T20:59:07.900800", "MEAN_MOTION": 14.46938139, "ECCENTRICITY": 0.0074531, "INCLINATION": 73.9465, "RA_OF_ASC_NODE": 211.9291, "ARG_OF_PERICENTER": 77.5315, "MEAN_ANOMALY": 301.6184, "EPHEMERIS_TYPE": 0, "CLASSIFICATION_TYPE": "U", "NORAD_CAT_ID": 35015, "ELEMENT_SET_NO": 999, "REV_AT_EPOCH": 65616, "BSTAR": 0.00073268, "MEAN_MOTION_DOT": 2.728e-05, "MEAN_MOTION_DDOT": 0}, "tle": {"line1": "1 35015U 93036AGC 25358.87439700  .00002728  00000+0  73268-3 0  9993", "line2": "2 35015  73.9465 211.9291 0074531  77.5315 301.6184 14.46938139656168"}}, "geometry": {"type": "Point", "coordinates": [-164.52838026792432, -42.52316662132551]}}, {"type": "Feature", "properties": {"norad_id": 35016, "name": "COSMOS 2251 DEB", "group": "cosmos-2251-debris", "lat": 24.008943970883795, "lon": 83.53012374776277, "alt_km": 703.1686267888881, "timestamp": "2025-12-25T11:37:44.835221+00:00", "meta": {"OBJECT_NAME": "COSMOS 2251 DEB", "OBJECT_ID": "1993-036AGD", "EPOCH": "2025-12-21T05:33:15.838848", "MEAN_MOTION": 14.35075882, "ECCENTRICITY": 0.01140745, "INCLINATION": 73.9302, "RA_OF_ASC_NODE": 278.7521, "ARG_OF_PERICENTER": 193.9283, "MEAN_ANOMALY": 317.5381, "EPHEMERIS_TYPE": 0, "CLASSIFICATION_TYPE": "U", "NORAD_CAT_ID": 35016, "ELEMENT_SET_NO": 999, "REV_AT_EPOCH": 86904, "BSTAR": 0.00026149228, "MEAN_MOTION_DOT": 7.75e-06, "MEAN_MOTION_DDOT": 0}, "tle": {"line1": "1 35016U 93036AGD 25355.23143332  .00000775  00000+0  26149-3 0  9990", "line2": "2 35016  73.9302 278.7521 0114074 193.9283 317.5381 14.35075882869043"}}, "geometry": {"type": "Point", "coordinates": [83.53012374776277, 24.008943970883795]}}, {"type": "Feature", "properties": {"norad_id": 35018, "name": "COSMOS 2251 DEB", "group": "cosmos-2251-debris", "lat": 21.33643519681234, "lon": 95.43905807912338, "alt_km": 777.5106993899853, "timestamp": "2025-12-25T11:37:44.835231+00:00", "meta": {"OBJECT_NAME": "COSMOS 2251 DEB", "OBJECT_ID": "1993-036AGF", "EPOCH": "2025-12-24T16:12:38.101536", "MEAN_MOTION": 13.67138502, "ECCENTRICITY": 0.03490652, "INCLINATION": 73.9764, "RA_OF_ASC_NODE": 90.3261, "ARG_OF_PERICENTER": 356.917, "MEAN_ANOMALY": 2.9788, "EPHEMERIS_TYPE": 0, "CLASSIFICATION_TYPE": "U", "NORAD_CAT_ID": 35018, "ELEMENT_SET_NO": 999, "REV_AT_EPOCH": 83349, "BSTAR": 0.00085132295, "MEAN_MOTION_DOT": 1.064e-05, "MEAN_MOTION_DDOT": 0}, "tle": {"line1": "1 35018U 93036AGF 25358.67544099  .00001064  00000+0  85132-3 0  9997", "line2": "2 35018  73.9764  90.3261 0349065 356.9170   2.9788 13.67138502833491"}}, "geometry": {"type": "Point", "coordinates": [95.43905807912338, 21.33643519681234]}}, {"type": "Feature", "properties": {"norad_id": 35020, "name": "COSMOS 2251 DEB", "group": "cosmos-2251-debris", "lat": 72.57349552035437, "lon": -119.7657066394555, "alt_km": 736.1247769888423, "timestamp": "2025-12-25T11:37:44.835241+00:00", "meta": {"OBJECT_NAME": "COSMOS 2251 DEB", "OBJECT_ID": "1993-036AGH", "EPOCH": "2025-12-23T11:39:00.022752", "MEAN_MOTION": 14.62820598, "ECCENTRICITY": 0.00912637, "INCLINATION": 74.045, "RA_OF_ASC_NODE": 178.3606, "ARG_OF_PERICENTER": 289.9711, "MEAN_ANOMALY": 69.1644, "EPHEMERIS_TYPE": 0, "CLASSIFICATION_TYPE": "U", "NORAD_CAT_ID": 35020, "ELEMENT_SET_NO": 999, "REV_AT_EPOCH": 88395, "BSTAR": 0.00013387504, "MEAN_MOTION_DOT": 6.91e-06, "MEAN_MOTION_DDOT": 0}, "tle": {"line1": "1 35020U 93036AGH 25357.48541693  .00000691  00000+0  13388-3 0  9994", "line2": "2 35020  74.0450 178.3606 0091263 289.9711  69.1644 14.62820598883959"}}, "geometry": {"type": "Point", "coordinates": [-119.7657066394555, 72.57349552035437]}}, {"type": "Feature", "properties": {"norad_id": 35022, "name": "COSMOS 2251 DEB", "group": "cosmos-2251-debris", "lat": 41.87645266064289, "lon": -47.55729609395194, "alt_km": 686.0979494564845, "timestamp": "2025-12-25T11:37:44.835251+00:00", "meta": {"OBJECT_NAME": "COSMOS 2251 DEB", "OBJECT_ID": "1993-036AGK", "EPOCH": "2025-12-23T05:11:29.419872", "MEAN_MOTION": 14.6087455, "ECCENTRICITY": 0.00462541, "INCLINATION": 74.028, "RA_OF_ASC_NODE": 301.8992, "ARG_OF_PERICENTER": 138.376, "MEAN_ANOMALY": 222.0943, "EPHEMERIS_TYPE": 0, "CLASSIFICATION_TYPE": "U", "NORAD_CAT_ID": 35022, "ELEMENT_SET_NO": 999, "REV_AT_EPOCH": 59296, "BSTAR": 0.00044697282, "MEAN_MOTION_DOT": 2.19e-05, "MEAN_MOTION_DDOT": 0}, "tle": {"line1": "1 35022U 93036AGK 25357.21631273  .00002190  00000+0  44697-3 0  9994", "line2": "2 35022  74.0280 301.8992 0046254 138.3760 222.0943 14.60874550592969"}}, "geometry": {"type": "Point", "coordinates": [-47.55729609395194, 41.87645266064289]}}]}